CCSDS_OMM_VERS = 2.0
CREATION_DATE  = 
ORIGINATOR     = 

OBJECT_NAME    = SL-4 R/B
OBJECT_ID      = 2014-021B
CENTER_NAME    = EARTH
REF_FRAME      = TEME
TIME_SYSTEM    = UTC
MEAN_ELEMENT_THEORY = SGP/SGP4

EPOCH          = 2026-02-07T05:34:37.431552
MEAN_MOTION    = 15.38215075
ECCENTRICITY   = .00989975
INCLINATION    = 51.6064
RA_OF_ASC_NODE = 125.7455
ARG_OF_PERICENTER = 352.0053
MEAN_ANOMALY   = 7.9348

EPHEMERIS_TYPE = 0
CLASSIFICATION_TYPE = U
NORAD_CAT_ID   = 39679
ELEMENT_SET_NO = 999
REV_AT_EPOCH   = 65158
BSTAR          = .35155679E-3
MEAN_MOTION_DOT = .15499E-3
MEAN_MOTION_DDOT = 0

CCSDS_OMM_VERS = 2.0
CREATION_DATE  = 
ORIGINATOR     = 

OBJECT_NAME    = ALOS-2
OBJECT_ID      = 2014-029A
CENTER_NAME    = EARTH
REF_FRAME      = TEME
TIME_SYSTEM    = UTC
MEAN_ELEMENT_THEORY = SGP/SGP4

EPOCH          = 2026-02-07T06:49:04.364256
MEAN_MOTION    = 14.79491538
ECCENTRICITY   = .0001394
INCLINATION    = 97.9218
RA_OF_ASC_NODE = 137.3190
ARG_OF_PERICENTER = 97.7409
MEAN_ANOMALY   = 262.3960

EPHEMERIS_TYPE = 0
CLASSIFICATION_TYPE = U
NORAD_CAT_ID   = 39766
ELEMENT_SET_NO = 999
REV_AT_EPOCH   = 63237
BSTAR          = .58445583E-4
MEAN_MOTION_DOT = .385E-5
MEAN_MOTION_DDOT = 0

CCSDS_OMM_VERS = 2.0
CREATION_DATE  = 
ORIGINATOR     = 

OBJECT_NAME    = YAOGAN-29
OBJECT_ID      = 2015-069A
CENTER_NAME    = EARTH
REF_FRAME      = TEME
TIME_SYSTEM    = UTC
MEAN_ELEMENT_THEORY = SGP/SGP4

EPOCH          = 2026-02-07T07:07:14.663136
MEAN_MOTION    = 14.82961494
ECCENTRICITY   = .00028749
INCLINATION    = 98.0173
RA_OF_ASC_NODE = 66.6402
ARG_OF_PERICENTER = 86.3884
MEAN_ANOMALY   = 273.7657

EPHEMERIS_TYPE = 0
CLASSIFICATION_TYPE = U
NORAD_CAT_ID   = 41038
ELEMENT_SET_NO = 999
REV_AT_EPOCH   = 55137
BSTAR          = .14316111E-3
MEAN_MOTION_DOT = .1108E-4
MEAN_MOTION_DDOT = 0

CCSDS_OMM_VERS = 2.0
CREATION_DATE  = 
ORIGINATOR     = 

OBJECT_NAME    = ASTRO-H (HITOMI)
OBJECT_ID      = 2016-012A
CENTER_NAME    = EARTH
REF_FRAME      = TEME
TIME_SYSTEM    = UTC
MEAN_ELEMENT_THEORY = SGP/SGP4

EPOCH          = 2026-02-06T15:06:32.623200
MEAN_MOTION    = 15.09777198
ECCENTRICITY   = .00098454
INCLINATION    = 30.9980
RA_OF_ASC_NODE = 196.9497
ARG_OF_PERICENTER = 20.3428
MEAN_ANOMALY   = 339.7601

EPHEMERIS_TYPE = 0
CLASSIFICATION_TYPE = U
NORAD_CAT_ID   = 41337
ELEMENT_SET_NO = 999
REV_AT_EPOCH   = 54753
BSTAR          = .26847289E-3
MEAN_MOTION_DOT = .4541E-4
MEAN_MOTION_DDOT = 0

CCSDS_OMM_VERS = 2.0
CREATION_DATE  = 
ORIGINATOR     = 

OBJECT_NAME    = HXMT (HUIYAN)
OBJECT_ID      = 2017-034A
CENTER_NAME    = EARTH
REF_FRAME      = TEME
TIME_SYSTEM    = UTC
MEAN_ELEMENT_THEORY = SGP/SGP4

EPOCH          = 2026-02-06T21:39:39.016224
MEAN_MOTION    = 15.17057041
ECCENTRICITY   = .0031038
INCLINATION    = 43.0135
RA_OF_ASC_NODE = 187.7820
ARG_OF_PERICENTER = 37.9563
MEAN_ANOMALY   = 322.3465

EPHEMERIS_TYPE = 0
CLASSIFICATION_TYPE = U
NORAD_CAT_ID   = 42758
ELEMENT_SET_NO = 999
REV_AT_EPOCH   = 47786
BSTAR          = .45674E-3
MEAN_MOTION_DOT = .9087E-4
MEAN_MOTION_DDOT = 0

CCSDS_OMM_VERS = 2.0
CREATION_DATE  = 
ORIGINATOR     = 

OBJECT_NAME    = CZ-2C R/B
OBJECT_ID      = 2018-054D
CENTER_NAME    = EARTH
REF_FRAME      = TEME
TIME_SYSTEM    = UTC
MEAN_ELEMENT_THEORY = SGP/SGP4

EPOCH          = 2026-02-06T13:40:53.240160
MEAN_MOTION    = 15.94764434
ECCENTRICITY   = .0013108
INCLINATION    = 35.1293
RA_OF_ASC_NODE = 157.6454
ARG_OF_PERICENTER = 0.8200
MEAN_ANOMALY   = 359.2560

EPHEMERIS_TYPE = 0
CLASSIFICATION_TYPE = U
NORAD_CAT_ID   = 43521
ELEMENT_SET_NO = 999
REV_AT_EPOCH   = 42390
BSTAR          = .80127E-3
MEAN_MOTION_DOT = .324769E-2
MEAN_MOTION_DDOT = .41408E-4

CCSDS_OMM_VERS = 2.0
CREATION_DATE  = 
ORIGINATOR     = 

OBJECT_NAME    = SAOCOM 1A
OBJECT_ID      = 2018-076A
CENTER_NAME    = EARTH
REF_FRAME      = TEME
TIME_SYSTEM    = UTC
MEAN_ELEMENT_THEORY = SGP/SGP4

EPOCH          = 2026-02-07T07:31:02.172576
MEAN_MOTION    = 14.82155554
ECCENTRICITY   = .00014168
INCLINATION    = 97.8868
RA_OF_ASC_NODE = 226.9166
ARG_OF_PERICENTER = 83.6763
MEAN_ANOMALY   = 276.4612

EPHEMERIS_TYPE = 0
CLASSIFICATION_TYPE = U
NORAD_CAT_ID   = 43641
ELEMENT_SET_NO = 999
REV_AT_EPOCH   = 39686
BSTAR          = .25102074E-4
MEAN_MOTION_DOT = .148E-5
MEAN_MOTION_DDOT = 0

CCSDS_OMM_VERS = 2.0
CREATION_DATE  = 
ORIGINATOR     = 

OBJECT_NAME    = H-2A R/B
OBJECT_ID      = 2018-084L
CENTER_NAME    = EARTH
REF_FRAME      = TEME
TIME_SYSTEM    = UTC
MEAN_ELEMENT_THEORY = SGP/SGP4

EPOCH          = 2026-02-07T03:24:45.533088
MEAN_MOTION    = 15.40004170
ECCENTRICITY   = .0026354
INCLINATION    = 98.8761
RA_OF_ASC_NODE = 249.0330
ARG_OF_PERICENTER = 128.1951
MEAN_ANOMALY   = 232.1670

EPHEMERIS_TYPE = 0
CLASSIFICATION_TYPE = U
NORAD_CAT_ID   = 43682
ELEMENT_SET_NO = 999
REV_AT_EPOCH   = 40107
BSTAR          = .61650251E-3
MEAN_MOTION_DOT = .24843E-3
MEAN_MOTION_DDOT = 0

CCSDS_OMM_VERS = 2.0
CREATION_DATE  = 
ORIGINATOR     = 

OBJECT_NAME    = SAOCOM 1B
OBJECT_ID      = 2020-059A
CENTER_NAME    = EARTH
REF_FRAME      = TEME
TIME_SYSTEM    = UTC
MEAN_ELEMENT_THEORY = SGP/SGP4

EPOCH          = 2026-02-07T06:38:48.872256
MEAN_MOTION    = 14.82163776
ECCENTRICITY   = .00013519
INCLINATION    = 97.8864
RA_OF_ASC_NODE = 225.9790
ARG_OF_PERICENTER = 85.4927
MEAN_ANOMALY   = 274.6441

EPHEMERIS_TYPE = 0
CLASSIFICATION_TYPE = U
NORAD_CAT_ID   = 46265
ELEMENT_SET_NO = 999
REV_AT_EPOCH   = 29424
BSTAR          = .12255354E-3
MEAN_MOTION_DOT = .924E-5
MEAN_MOTION_DDOT = 0

CCSDS_OMM_VERS = 2.0
CREATION_DATE  = 
ORIGINATOR     = 

OBJECT_NAME    = CSS (TIANHE)
OBJECT_ID      = 2021-035A
CENTER_NAME    = EARTH
REF_FRAME      = TEME
TIME_SYSTEM    = UTC
MEAN_ELEMENT_THEORY = SGP/SGP4

EPOCH          = 2026-02-07T07:20:44.073888
MEAN_MOTION    = 15.59315504
ECCENTRICITY   = .00051589
INCLINATION    = 41.4681
RA_OF_ASC_NODE = 32.8450
ARG_OF_PERICENTER = 20.6768
MEAN_ANOMALY   = 339.4279

EPHEMERIS_TYPE = 0
CLASSIFICATION_TYPE = U
NORAD_CAT_ID   = 48274
ELEMENT_SET_NO = 999
REV_AT_EPOCH   = 27286
BSTAR          = .31114621E-3
MEAN_MOTION_DOT = .24969E-3
MEAN_MOTION_DDOT = 0

CCSDS_OMM_VERS = 2.0
CREATION_DATE  = 
ORIGINATOR     = 

OBJECT_NAME    = COSMOS 2550
OBJECT_ID      = 2021-056A
CENTER_NAME    = EARTH
REF_FRAME      = TEME
TIME_SYSTEM    = UTC
MEAN_ELEMENT_THEORY = SGP/SGP4

EPOCH          = 2026-02-07T07:49:45.641280
MEAN_MOTION    = 15.33839083
ECCENTRICITY   = .0008334
INCLINATION    = 67.1449
RA_OF_ASC_NODE = 132.7764
ARG_OF_PERICENTER = 269.6958
MEAN_ANOMALY   = 90.3242

EPHEMERIS_TYPE = 0
CLASSIFICATION_TYPE = U
NORAD_CAT_ID   = 48865
ELEMENT_SET_NO = 999
REV_AT_EPOCH   = 25880
BSTAR          = .20712014E-3
MEAN_MOTION_DOT = .663E-4
MEAN_MOTION_DDOT = 0

CCSDS_OMM_VERS = 2.0
CREATION_DATE  = 
ORIGINATOR     = 

OBJECT_NAME    = CZ-2C R/B
OBJECT_ID      = 2022-058K
CENTER_NAME    = EARTH
REF_FRAME      = TEME
TIME_SYSTEM    = UTC
MEAN_ELEMENT_THEORY = SGP/SGP4

EPOCH          = 2026-02-07T05:00:48.629952
MEAN_MOTION    = 15.52100302
ECCENTRICITY   = .00423363
INCLINATION    = 50.1885
RA_OF_ASC_NODE = 114.8234
ARG_OF_PERICENTER = 71.3421
MEAN_ANOMALY   = 289.2139

EPHEMERIS_TYPE = 0
CLASSIFICATION_TYPE = U
NORAD_CAT_ID   = 52794
ELEMENT_SET_NO = 999
REV_AT_EPOCH   = 20539
BSTAR          = .59165059E-3
MEAN_MOTION_DOT = .3753E-3
MEAN_MOTION_DDOT = 0

