SL-4 R/B                
1 39679U 14021B   26038.23237768  .00015499  00000+0  35156-3 0  9999
2 39679  51.6064 125.7455 0098997 352.0053   7.9348 15.38215075651580
ALOS-2                  
1 39766U 14029A   26038.28407829  .00000385  00000+0  58446-4 0  9992
2 39766  97.9218 137.3190 0001394  97.7409 262.3960 14.79491538632376
YAOGAN-29               
1 41038U 15069A   26038.29669749  .00001108  00000+0  14316-3 0  9995
2 41038  98.0173  66.6402 0002874  86.3884 273.7657 14.82961494551374
ASTRO-H (HITOMI)        
1 41337U 16012A   26037.62954425  .00004541  00000+0  26847-3 0  9996
2 41337  30.9980 196.9497 0009845  20.3428 339.7601 15.09777198547536
HXMT (HUIYAN)           
1 42758U 17034A   26037.90253491  .00009087  00000+0  45674-3 0  9994
2 42758  43.0135 187.7820 0031038  37.9563 322.3465 15.17057041477863
CZ-2C R/B               
1 43521U 18054D   26037.57006065  .00324769  41408-4  80127-3 0  9993
2 43521  35.1293 157.6454 0013108   0.8200 359.2560 15.94764434423900
SAOCOM 1A               
1 43641U 18076A   26038.31321959  .00000148  00000+0  25102-4 0  9998
2 43641  97.8868 226.9166 0001416  83.6763 276.4612 14.82155554396863
H-2A R/B                
1 43682U 18084L   26038.14219367  .00024843  00000+0  61650-3 0  9997
2 43682  98.8761 249.0330 0026354 128.1951 232.1670 15.40004170401077
SAOCOM 1B               
1 46265U 20059A   26038.27695454  .00000924  00000+0  12255-3 0  9992
2 46265  97.8864 225.9790 0001351  85.4927 274.6441 14.82163776294240
CSS (TIANHE)            
1 48274U 21035A   26038.30606567  .00024969  00000+0  31115-3 0  9991
2 48274  41.4681  32.8450 0005158  20.6768 339.4279 15.59315504272861
COSMOS 2550             
1 48865U 21056A   26038.32622270  .00006630  00000+0  20712-3 0  9997
2 48865  67.1449 132.7764 0008334 269.6958  90.3242 15.33839083258803
CZ-2C R/B               
1 52794U 22058K   26038.20889618  .00037530  00000+0  59165-3 0  9991
2 52794  50.1885 114.8234 0042336  71.3421 289.2139 15.52100302205397
